[{"OBJECT_NAME":"ZHONGXING-1D","OBJECT_ID":"2021-114A","EPOCH":"2026-04-05T06:31:06.527712","MEAN_MOTION":1.00270669,"ECCENTRICITY":0.00016628,"INCLINATION":0.038,"RA_OF_ASC_NODE":305.4538,"ARG_OF_PERICENTER":274.641,"MEAN_ANOMALY":201.4146,"EPHEMERIS_TYPE":0,"CLASSIFICATION_TYPE":"U","NORAD_CAT_ID":49505,"ELEMENT_SET_NO":999,"REV_AT_EPOCH":1608,"BSTAR":0,"MEAN_MOTION_DOT":-3.35e-6,"MEAN_MOTION_DDOT":0},{"OBJECT_NAME":"STPSAT-6","OBJECT_ID":"2021-118A","EPOCH":"2026-04-05T03:54:38.881728","MEAN_MOTION":1.00272473,"ECCENTRICITY":0.00021901,"INCLINATION":0.1332,"RA_OF_ASC_NODE":84.3142,"ARG_OF_PERICENTER":253.4294,"MEAN_ANOMALY":162.5131,"EPHEMERIS_TYPE":0,"CLASSIFICATION_TYPE":"U","NORAD_CAT_ID":49817,"ELEMENT_SET_NO":999,"REV_AT_EPOCH":1584,"BSTAR":0,"MEAN_MOTION_DOT":-4.3e-7,"MEAN_MOTION_DDOT":0},{"OBJECT_NAME":"LDPE-1","OBJECT_ID":"2021-118B","EPOCH":"2026-04-05T02:41:13.832160","MEAN_MOTION":0.98945785,"ECCENTRICITY":0.00011825,"INCLINATION":5.5105,"RA_OF_ASC_NODE":63.3885,"ARG_OF_PERICENTER":117.4318,"MEAN_ANOMALY":97.179,"EPHEMERIS_TYPE":0,"CLASSIFICATION_TYPE":"U","NORAD_CAT_ID":49818,"ELEMENT_SET_NO":999,"REV_AT_EPOCH":1591,"BSTAR":0,"MEAN_MOTION_DOT":4.4e-7,"MEAN_MOTION_DDOT":0},{"OBJECT_NAME":"EXPRESS AMU-7","OBJECT_ID":"2021-123A","EPOCH":"2026-04-03T08:22:56.182368","MEAN_MOTION":1.00272584,"ECCENTRICITY":1.255e-5,"INCLINATION":0.0145,"RA_OF_ASC_NODE":249.0261,"ARG_OF_PERICENTER":119.3954,"MEAN_ANOMALY":93.9924,"EPHEMERIS_TYPE":0,"CLASSIFICATION_TYPE":"U","NORAD_CAT_ID":50001,"ELEMENT_SET_NO":999,"REV_AT_EPOCH":1579,"BSTAR":0,"MEAN_MOTION_DOT":-2.45e-6,"MEAN_MOTION_DDOT":0},{"OBJECT_NAME":"EXPRESS AMU-3","OBJECT_ID":"2021-123B","EPOCH":"2026-04-04T04:17:55.127328","MEAN_MOTION":1.00272397,"ECCENTRICITY":5.53e-5,"INCLINATION":0.022,"RA_OF_ASC_NODE":240.2081,"ARG_OF_PERICENTER":30.8974,"MEAN_ANOMALY":88.88,"EPHEMERIS_TYPE":0,"CLASSIFICATION_TYPE":"U","NORAD_CAT_ID":50002,"ELEMENT_SET_NO":999,"REV_AT_EPOCH":629,"BSTAR":0,"MEAN_MOTION_DOT":-3.22e-6,"MEAN_MOTION_DDOT":0},{"OBJECT_NAME":"TIANLIAN 2-02","OBJECT_ID":"2021-124A","EPOCH":"2026-04-05T05:00:08.009856","MEAN_MOTION":1.00273069,"ECCENTRICITY":0.00035308,"INCLINATION":0.6132,"RA_OF_ASC_NODE":87.3026,"ARG_OF_PERICENTER":221.4675,"MEAN_ANOMALY":130.7343,"EPHEMERIS_TYPE":0,"CLASSIFICATION_TYPE":"U","NORAD_CAT_ID":50005,"ELEMENT_SET_NO":999,"REV_AT_EPOCH":1588,"BSTAR":0,"MEAN_MOTION_DOT":-1.2e-7,"MEAN_MOTION_DDOT":0},{"OBJECT_NAME":"TURKSAT 5B","OBJECT_ID":"2021-126A","EPOCH":"2026-04-05T05:04:38.688960","MEAN_MOTION":1.00272074,"ECCENTRICITY":0.00049684,"INCLINATION":0.0806,"RA_OF_ASC_NODE":330.2262,"ARG_OF_PERICENTER":9.9487,"MEAN_ANOMALY":331.4947,"EPHEMERIS_TYPE":0,"CLASSIFICATION_TYPE":"U","NORAD_CAT_ID":50212,"ELEMENT_SET_NO":999,"REV_AT_EPOCH":1556,"BSTAR":0,"MEAN_MOTION_DOT":1.47e-6,"MEAN_MOTION_DDOT":0},{"OBJECT_NAME":"INMARSAT 6-F1","OBJECT_ID":"2021-128A","EPOCH":"2026-04-05T02:52:35.243040","MEAN_MOTION":1.00273138,"ECCENTRICITY":2.694e-5,"INCLINATION":0.0169,"RA_OF_ASC_NODE":223.1153,"ARG_OF_PERICENTER":247.7772,"MEAN_ANOMALY":209.4312,"EPHEMERIS_TYPE":0,"CLASSIFICATION_TYPE":"U","NORAD_CAT_ID":50319,"ELEMENT_SET_NO":999,"REV_AT_EPOCH":1552,"BSTAR":0,"MEAN_MOTION_DOT":-1.71e-6,"MEAN_MOTION_DDOT":0},{"OBJECT_NAME":"SHIYAN-12 01 (SY-12 01)","OBJECT_ID":"2021-129A","EPOCH":"2026-04-03T17:05:11.604768","MEAN_MOTION":1.00080844,"ECCENTRICITY":0.000341,"INCLINATION":3.4828,"RA_OF_ASC_NODE":80.9059,"ARG_OF_PERICENTER":263.7414,"MEAN_ANOMALY":222.3716,"EPHEMERIS_TYPE":0,"CLASSIFICATION_TYPE":"U","NORAD_CAT_ID":50321,"ELEMENT_SET_NO":999,"REV_AT_EPOCH":1575,"BSTAR":0,"MEAN_MOTION_DOT":-3.56e-6,"MEAN_MOTION_DDOT":0},{"OBJECT_NAME":"SHIYAN-12 02 (SY-12 02)","OBJECT_ID":"2021-129B","EPOCH":"2026-04-03T16:24:24.151104","MEAN_MOTION":1.00462099,"ECCENTRICITY":4.67e-5,"INCLINATION":3.4829,"RA_OF_ASC_NODE":80.9202,"ARG_OF_PERICENTER":11.886,"MEAN_ANOMALY":18.2553,"EPHEMERIS_TYPE":0,"CLASSIFICATION_TYPE":"U","NORAD_CAT_ID":50322,"ELEMENT_SET_NO":999,"REV_AT_EPOCH":1575,"BSTAR":0,"MEAN_MOTION_DOT":1.54e-6,"MEAN_MOTION_DDOT":0},{"OBJECT_NAME":"TJS-9","OBJECT_ID":"2021-135A","EPOCH":"2026-04-05T06:33:06.336000","MEAN_MOTION":1.00272692,"ECCENTRICITY":0.00039106,"INCLINATION":0.0664,"RA_OF_ASC_NODE":279.0161,"ARG_OF_PERICENTER":148.1223,"MEAN_ANOMALY":1.9513,"EPHEMERIS_TYPE":0,"CLASSIFICATION_TYPE":"U","NORAD_CAT_ID":50574,"ELEMENT_SET_NO":999,"REV_AT_EPOCH":1569,"BSTAR":0,"MEAN_MOTION_DOT":-2.97e-6,"MEAN_MOTION_DDOT":0},{"OBJECT_NAME":"GOES 18","OBJECT_ID":"2022-021A","EPOCH":"2026-04-05T03:37:38.675712","MEAN_MOTION":1.00268291,"ECCENTRICITY":7.345e-5,"INCLINATION":0.0482,"RA_OF_ASC_NODE":39.4881,"ARG_OF_PERICENTER":32.5859,"MEAN_ANOMALY":38.7967,"EPHEMERIS_TYPE":0,"CLASSIFICATION_TYPE":"U","NORAD_CAT_ID":51850,"ELEMENT_SET_NO":999,"REV_AT_EPOCH":586,"BSTAR":0,"MEAN_MOTION_DOT":9.8e-7,"MEAN_MOTION_DDOT":0},{"OBJECT_NAME":"ZHONGXING-6D","OBJECT_ID":"2022-038A","EPOCH":"2026-04-02T02:57:52.116768","MEAN_MOTION":1.00268552,"ECCENTRICITY":0.00019772,"INCLINATION":0.0419,"RA_OF_ASC_NODE":250.5407,"ARG_OF_PERICENTER":80.9664,"MEAN_ANOMALY":28.4685,"EPHEMERIS_TYPE":0,"CLASSIFICATION_TYPE":"U","NORAD_CAT_ID":52255,"ELEMENT_SET_NO":999,"REV_AT_EPOCH":1466,"BSTAR":0,"MEAN_MOTION_DOT":-3.61e-6,"MEAN_MOTION_DDOT":0},{"OBJECT_NAME":"NILESAT 301","OBJECT_ID":"2022-061A","EPOCH":"2026-04-05T05:52:02.773920","MEAN_MOTION":1.00271416,"ECCENTRICITY":0.00060455,"INCLINATION":0.0629,"RA_OF_ASC_NODE":15.7842,"ARG_OF_PERICENTER":355.07,"MEAN_ANOMALY":263.7154,"EPHEMERIS_TYPE":0,"CLASSIFICATION_TYPE":"U","NORAD_CAT_ID":52817,"ELEMENT_SET_NO":999,"REV_AT_EPOCH":1400,"BSTAR":0,"MEAN_MOTION_DOT":-5.7e-7,"MEAN_MOTION_DDOT":0},{"OBJECT_NAME":"CMS-02 (GSAT 24)","OBJECT_ID":"2022-067A","EPOCH":"2026-04-05T02:52:20.267328","MEAN_MOTION":1.00272878,"ECCENTRICITY":0.00018998,"INCLINATION":0.049,"RA_OF_ASC_NODE":95.3339,"ARG_OF_PERICENTER":236.7671,"MEAN_ANOMALY":347.4022,"EPHEMERIS_TYPE":0,"CLASSIFICATION_TYPE":"U","NORAD_CAT_ID":52903,"ELEMENT_SET_NO":999,"REV_AT_EPOCH":1387,"BSTAR":0,"MEAN_MOTION_DOT":-1.64e-6,"MEAN_MOTION_DDOT":0},{"OBJECT_NAME":"MEASAT 3D","OBJECT_ID":"2022-067B","EPOCH":"2026-04-05T02:54:42.539616","MEAN_MOTION":1.00273467,"ECCENTRICITY":0.00027912,"INCLINATION":0.0435,"RA_OF_ASC_NODE":327.7198,"ARG_OF_PERICENTER":24.9272,"MEAN_ANOMALY":335.9511,"EPHEMERIS_TYPE":0,"CLASSIFICATION_TYPE":"U","NORAD_CAT_ID":52904,"ELEMENT_SET_NO":999,"REV_AT_EPOCH":1391,"BSTAR":0,"MEAN_MOTION_DOT":-2.41e-6,"MEAN_MOTION_DDOT":0},{"OBJECT_NAME":"SES-22","OBJECT_ID":"2022-071A","EPOCH":"2026-04-05T05:14:21.645312","MEAN_MOTION":1.00271441,"ECCENTRICITY":0.00012486,"INCLINATION":0.0182,"RA_OF_ASC_NODE":230.4594,"ARG_OF_PERICENTER":154.5621,"MEAN_ANOMALY":108.0699,"EPHEMERIS_TYPE":0,"CLASSIFICATION_TYPE":"U","NORAD_CAT_ID":52933,"ELEMENT_SET_NO":999,"REV_AT_EPOCH":679,"BSTAR":0,"MEAN_MOTION_DOT":1.06e-6,"MEAN_MOTION_DDOT":0}]
