ZHONGXING-1D            
1 49505U 21114A   26095.27160333 -.00000335  00000+0  00000+0 0  9999
2 49505   0.0380 305.4538 0001662 274.6410 201.4146  1.00270669 16087
STPSAT-6                
1 49817U 21118A   26095.16295002 -.00000043  00000+0  00000+0 0  9995
2 49817   0.1332  84.3142 0002190 253.4294 162.5131  1.00272473 15846
LDPE-1                  
1 49818U 21118B   26095.11196565  .00000044  00000+0  00000+0 0  9995
2 49818   5.5105  63.3885 0001182 117.4318  97.1790  0.98945785 15912
EXPRESS AMU-7           
1 50001U 21123A   26093.34926137 -.00000245  00000+0  00000+0 0  9990
2 50001   0.0145 249.0261 0000125 119.3954  93.9924  1.00272584 15799
EXPRESS AMU-3           
1 50002U 21123B   26094.17911027 -.00000322  00000+0  00000+0 0  9991
2 50002   0.0220 240.2081 0000553  30.8974  88.8800  1.00272397  6294
TIANLIAN 2-02           
1 50005U 21124A   26095.20842604 -.00000012  00000+0  00000+0 0  9990
2 50005   0.6132  87.3026 0003530 221.4675 130.7343  1.00273069 15889
TURKSAT 5B              
1 50212U 21126A   26095.21155890  .00000147  00000+0  00000+0 0  9995
2 50212   0.0806 330.2262 0004968   9.9487 331.4947  1.00272074 15569
INMARSAT 6-F1           
1 50319U 21128A   26095.11985235 -.00000171  00000+0  00000+0 0  9996
2 50319   0.0169 223.1153 0000269 247.7772 209.4312  1.00273138 15525
SHIYAN-12 01 (SY-12 01) 
1 50321U 21129A   26093.71193987 -.00000356  00000+0  00000+0 0  9994
2 50321   3.4828  80.9059 0003410 263.7414 222.3716  1.00080844 15750
SHIYAN-12 02 (SY-12 02) 
1 50322U 21129B   26093.68361286  .00000154  00000+0  00000+0 0  9995
2 50322   3.4829  80.9202 0000467  11.8860  18.2553  1.00462099 15755
TJS-9                   
1 50574U 21135A   26095.27299000 -.00000297  00000+0  00000+0 0  9991
2 50574   0.0664 279.0161 0003910 148.1223   1.9513  1.00272692 15698
GOES 18                 
1 51850U 22021A   26095.15114208  .00000098  00000+0  00000+0 0  9995
2 51850   0.0482  39.4881 0000734  32.5859  38.7967  1.00268291  5862
ZHONGXING-6D            
1 52255U 22038A   26092.12351987 -.00000361  00000+0  00000+0 0  9998
2 52255   0.0419 250.5407 0001977  80.9664  28.4685  1.00268552 14664
NILESAT 301             
1 52817U 22061A   26095.24447655 -.00000057  00000+0  00000+0 0  9994
2 52817   0.0629  15.7842 0006045 355.0700 263.7154  1.00271416 14009
CMS-02 (GSAT 24)        
1 52903U 22067A   26095.11967902 -.00000164  00000+0  00000+0 0  9993
2 52903   0.0490  95.3339 0001899 236.7671 347.4022  1.00272878 13871
MEASAT 3D               
1 52904U 22067B   26095.12132569 -.00000241  00000+0  00000+0 0  9994
2 52904   0.0435 327.7198 0002791  24.9272 335.9511  1.00273467 13917
SES-22                  
1 52933U 22071A   26095.21830608  .00000106  00000+0  00000+0 0  9999
2 52933   0.0182 230.4594 0001248 154.5621 108.0699  1.00271441  6796
